<?xml version="1.0" encoding="UTF-8"?>
<ndm xmlns:xsi="http://www.w3.org/2001/XMLSchema-instance" xsi:noNamespaceSchemaLocation="https://sanaregistry.org/r/ndmxml_unqualified/ndmxml-2.0.0-master-2.0.xsd">
<omm id="CCSDS_OMM_VERS" version="2.0">
<header><CREATION_DATE/><ORIGINATOR/></header><body><segment><metadata><OBJECT_NAME>KUIPER-00078</OBJECT_NAME><OBJECT_ID>2025-151K</OBJECT_ID><CENTER_NAME>EARTH</CENTER_NAME><REF_FRAME>TEME</REF_FRAME><TIME_SYSTEM>UTC</TIME_SYSTEM><MEAN_ELEMENT_THEORY>SGP4</MEAN_ELEMENT_THEORY></metadata><data><meanElements><EPOCH>2026-01-05T12:00:01.999296</EPOCH><MEAN_MOTION>14.79814765</MEAN_MOTION><ECCENTRICITY>.0004462</ECCENTRICITY><INCLINATION>51.8981</INCLINATION><RA_OF_ASC_NODE>215.0078</RA_OF_ASC_NODE><ARG_OF_PERICENTER>101.8791</ARG_OF_PERICENTER><MEAN_ANOMALY>132.2918</MEAN_ANOMALY></meanElements><tleParameters><EPHEMERIS_TYPE>0</EPHEMERIS_TYPE><CLASSIFICATION_TYPE>U</CLASSIFICATION_TYPE><NORAD_CAT_ID>64825</NORAD_CAT_ID><ELEMENT_SET_NO>999</ELEMENT_SET_NO><REV_AT_EPOCH>571</REV_AT_EPOCH><BSTAR>.75701E-2</BSTAR><MEAN_MOTION_DOT>.5783E-3</MEAN_MOTION_DOT><MEAN_MOTION_DDOT>0</MEAN_MOTION_DDOT></tleParameters></data></segment></body></omm>
<omm id="CCSDS_OMM_VERS" version="2.0">
<header><CREATION_DATE/><ORIGINATOR/></header><body><segment><metadata><OBJECT_NAME>KUIPER-00079</OBJECT_NAME><OBJECT_ID>2025-151L</OBJECT_ID><CENTER_NAME>EARTH</CENTER_NAME><REF_FRAME>TEME</REF_FRAME><TIME_SYSTEM>UTC</TIME_SYSTEM><MEAN_ELEMENT_THEORY>SGP4</MEAN_ELEMENT_THEORY></metadata><data><meanElements><EPOCH>2026-01-05T12:00:01.999296</EPOCH><MEAN_MOTION>14.79852312</MEAN_MOTION><ECCENTRICITY>.0008157</ECCENTRICITY><INCLINATION>51.8962</INCLINATION><RA_OF_ASC_NODE>219.9926</RA_OF_ASC_NODE><ARG_OF_PERICENTER>39.7905</ARG_OF_PERICENTER><MEAN_ANOMALY>42.8114</MEAN_ANOMALY></meanElements><tleParameters><EPHEMERIS_TYPE>0</EPHEMERIS_TYPE><CLASSIFICATION_TYPE>U</CLASSIFICATION_TYPE><NORAD_CAT_ID>64826</NORAD_CAT_ID><ELEMENT_SET_NO>999</ELEMENT_SET_NO><REV_AT_EPOCH>444</REV_AT_EPOCH><BSTAR>.25792E-2</BSTAR><MEAN_MOTION_DOT>.19469E-3</MEAN_MOTION_DOT><MEAN_MOTION_DDOT>0</MEAN_MOTION_DDOT></tleParameters></data></segment></body></omm>
<omm id="CCSDS_OMM_VERS" version="2.0">
<header><CREATION_DATE/><ORIGINATOR/></header><body><segment><metadata><OBJECT_NAME>KUIPER-00080</OBJECT_NAME><OBJECT_ID>2025-151M</OBJECT_ID><CENTER_NAME>EARTH</CENTER_NAME><REF_FRAME>TEME</REF_FRAME><TIME_SYSTEM>UTC</TIME_SYSTEM><MEAN_ELEMENT_THEORY>SGP4</MEAN_ELEMENT_THEORY></metadata><data><meanElements><EPOCH>2026-01-05T07:34:34.529088</EPOCH><MEAN_MOTION>14.79944319</MEAN_MOTION><ECCENTRICITY>.000649</ECCENTRICITY><INCLINATION>51.8982</INCLINATION><RA_OF_ASC_NODE>220.8124</RA_OF_ASC_NODE><ARG_OF_PERICENTER>57.6926</ARG_OF_PERICENTER><MEAN_ANOMALY>302.4664</MEAN_ANOMALY></meanElements><tleParameters><EPHEMERIS_TYPE>0</EPHEMERIS_TYPE><CLASSIFICATION_TYPE>U</CLASSIFICATION_TYPE><NORAD_CAT_ID>64827</NORAD_CAT_ID><ELEMENT_SET_NO>999</ELEMENT_SET_NO><REV_AT_EPOCH>2592</REV_AT_EPOCH><BSTAR>.52511E-3</BSTAR><MEAN_MOTION_DOT>.3785E-4</MEAN_MOTION_DOT><MEAN_MOTION_DDOT>0</MEAN_MOTION_DDOT></tleParameters></data></segment></body></omm>
<omm id="CCSDS_OMM_VERS" version="2.0">
<header><CREATION_DATE/><ORIGINATOR/></header><body><segment><metadata><OBJECT_NAME>KUIPER-00082</OBJECT_NAME><OBJECT_ID>2025-151N</OBJECT_ID><CENTER_NAME>EARTH</CENTER_NAME><REF_FRAME>TEME</REF_FRAME><TIME_SYSTEM>UTC</TIME_SYSTEM><MEAN_ELEMENT_THEORY>SGP4</MEAN_ELEMENT_THEORY></metadata><data><meanElements><EPOCH>2026-01-05T07:05:13.870752</EPOCH><MEAN_MOTION>14.79874582</MEAN_MOTION><ECCENTRICITY>.0003191</ECCENTRICITY><INCLINATION>51.8999</INCLINATION><RA_OF_ASC_NODE>208.4194</RA_OF_ASC_NODE><ARG_OF_PERICENTER>105.7252</ARG_OF_PERICENTER><MEAN_ANOMALY>254.4062</MEAN_ANOMALY></meanElements><tleParameters><EPHEMERIS_TYPE>0</EPHEMERIS_TYPE><CLASSIFICATION_TYPE>U</CLASSIFICATION_TYPE><NORAD_CAT_ID>64828</NORAD_CAT_ID><ELEMENT_SET_NO>999</ELEMENT_SET_NO><REV_AT_EPOCH>2609</REV_AT_EPOCH><BSTAR>-.46833E-3</BSTAR><MEAN_MOTION_DOT>-.3785E-4</MEAN_MOTION_DOT><MEAN_MOTION_DDOT>0</MEAN_MOTION_DDOT></tleParameters></data></segment></body></omm>
<omm id="CCSDS_OMM_VERS" version="2.0">
<header><CREATION_DATE/><ORIGINATOR/></header><body><segment><metadata><OBJECT_NAME>KUIPER-00083</OBJECT_NAME><OBJECT_ID>2025-151P</OBJECT_ID><CENTER_NAME>EARTH</CENTER_NAME><REF_FRAME>TEME</REF_FRAME><TIME_SYSTEM>UTC</TIME_SYSTEM><MEAN_ELEMENT_THEORY>SGP4</MEAN_ELEMENT_THEORY></metadata><data><meanElements><EPOCH>2026-01-05T12:00:01.999296</EPOCH><MEAN_MOTION>14.80091438</MEAN_MOTION><ECCENTRICITY>.0005324</ECCENTRICITY><INCLINATION>51.8978</INCLINATION><RA_OF_ASC_NODE>215.0099</RA_OF_ASC_NODE><ARG_OF_PERICENTER>60.0797</ARG_OF_PERICENTER><MEAN_ANOMALY>353.6981</MEAN_ANOMALY></meanElements><tleParameters><EPHEMERIS_TYPE>0</EPHEMERIS_TYPE><CLASSIFICATION_TYPE>U</CLASSIFICATION_TYPE><NORAD_CAT_ID>64829</NORAD_CAT_ID><ELEMENT_SET_NO>999</ELEMENT_SET_NO><REV_AT_EPOCH>505</REV_AT_EPOCH><BSTAR>.4339E-2</BSTAR><MEAN_MOTION_DOT>.33151E-3</MEAN_MOTION_DOT><MEAN_MOTION_DDOT>0</MEAN_MOTION_DDOT></tleParameters></data></segment></body></omm>
<omm id="CCSDS_OMM_VERS" version="2.0">
<header><CREATION_DATE/><ORIGINATOR/></header><body><segment><metadata><OBJECT_NAME>KUIPER-00084</OBJECT_NAME><OBJECT_ID>2025-151Q</OBJECT_ID><CENTER_NAME>EARTH</CENTER_NAME><REF_FRAME>TEME</REF_FRAME><TIME_SYSTEM>UTC</TIME_SYSTEM><MEAN_ELEMENT_THEORY>SGP4</MEAN_ELEMENT_THEORY></metadata><data><meanElements><EPOCH>2026-01-05T08:15:36.447840</EPOCH><MEAN_MOTION>14.79949437</MEAN_MOTION><ECCENTRICITY>.000888</ECCENTRICITY><INCLINATION>51.8987</INCLINATION><RA_OF_ASC_NODE>225.6856</RA_OF_ASC_NODE><ARG_OF_PERICENTER>15.1592</ARG_OF_PERICENTER><MEAN_ANOMALY>344.9634</MEAN_ANOMALY></meanElements><tleParameters><EPHEMERIS_TYPE>0</EPHEMERIS_TYPE><CLASSIFICATION_TYPE>U</CLASSIFICATION_TYPE><NORAD_CAT_ID>64830</NORAD_CAT_ID><ELEMENT_SET_NO>999</ELEMENT_SET_NO><REV_AT_EPOCH>2585</REV_AT_EPOCH><BSTAR>.56683E-3</BSTAR><MEAN_MOTION_DOT>.4105E-4</MEAN_MOTION_DOT><MEAN_MOTION_DDOT>0</MEAN_MOTION_DDOT></tleParameters></data></segment></body></omm>
<omm id="CCSDS_OMM_VERS" version="2.0">
<header><CREATION_DATE/><ORIGINATOR/></header><body><segment><metadata><OBJECT_NAME>KUIPER-00085</OBJECT_NAME><OBJECT_ID>2025-151R</OBJECT_ID><CENTER_NAME>EARTH</CENTER_NAME><REF_FRAME>TEME</REF_FRAME><TIME_SYSTEM>UTC</TIME_SYSTEM><MEAN_ELEMENT_THEORY>SGP4</MEAN_ELEMENT_THEORY></metadata><data><meanElements><EPOCH>2026-01-05T12:45:47.225376</EPOCH><MEAN_MOTION>14.79980661</MEAN_MOTION><ECCENTRICITY>.0008069</ECCENTRICITY><INCLINATION>51.9003</INCLINATION><RA_OF_ASC_NODE>207.3936</RA_OF_ASC_NODE><ARG_OF_PERICENTER>57.8943</ARG_OF_PERICENTER><MEAN_ANOMALY>302.2802</MEAN_ANOMALY></meanElements><tleParameters><EPHEMERIS_TYPE>0</EPHEMERIS_TYPE><CLASSIFICATION_TYPE>U</CLASSIFICATION_TYPE><NORAD_CAT_ID>64831</NORAD_CAT_ID><ELEMENT_SET_NO>999</ELEMENT_SET_NO><REV_AT_EPOCH>2612</REV_AT_EPOCH><BSTAR>.48006E-3</BSTAR><MEAN_MOTION_DOT>.3444E-4</MEAN_MOTION_DOT><MEAN_MOTION_DDOT>0</MEAN_MOTION_DDOT></tleParameters></data></segment></body></omm>
<omm id="CCSDS_OMM_VERS" version="2.0">
<header><CREATION_DATE/><ORIGINATOR/></header><body><segment><metadata><OBJECT_NAME>KUIPER-00086</OBJECT_NAME><OBJECT_ID>2025-151S</OBJECT_ID><CENTER_NAME>EARTH</CENTER_NAME><REF_FRAME>TEME</REF_FRAME><TIME_SYSTEM>UTC</TIME_SYSTEM><MEAN_ELEMENT_THEORY>SGP4</MEAN_ELEMENT_THEORY></metadata><data><meanElements><EPOCH>2026-01-05T07:38:32.288928</EPOCH><MEAN_MOTION>14.79920926</MEAN_MOTION><ECCENTRICITY>.0011181</ECCENTRICITY><INCLINATION>51.8996</INCLINATION><RA_OF_ASC_NODE>218.3205</RA_OF_ASC_NODE><ARG_OF_PERICENTER>35.0285</ARG_OF_PERICENTER><MEAN_ANOMALY>325.1410</MEAN_ANOMALY></meanElements><tleParameters><EPHEMERIS_TYPE>0</EPHEMERIS_TYPE><CLASSIFICATION_TYPE>U</CLASSIFICATION_TYPE><NORAD_CAT_ID>64832</NORAD_CAT_ID><ELEMENT_SET_NO>999</ELEMENT_SET_NO><REV_AT_EPOCH>2595</REV_AT_EPOCH><BSTAR>.51972E-3</BSTAR><MEAN_MOTION_DOT>.3743E-4</MEAN_MOTION_DOT><MEAN_MOTION_DDOT>0</MEAN_MOTION_DDOT></tleParameters></data></segment></body></omm>
<omm id="CCSDS_OMM_VERS" version="2.0">
<header><CREATION_DATE/><ORIGINATOR/></header><body><segment><metadata><OBJECT_NAME>KUIPER-00087</OBJECT_NAME><OBJECT_ID>2025-151T</OBJECT_ID><CENTER_NAME>EARTH</CENTER_NAME><REF_FRAME>TEME</REF_FRAME><TIME_SYSTEM>UTC</TIME_SYSTEM><MEAN_ELEMENT_THEORY>SGP4</MEAN_ELEMENT_THEORY></metadata><data><meanElements><EPOCH>2026-01-05T12:57:32.672736</EPOCH><MEAN_MOTION>14.79944912</MEAN_MOTION><ECCENTRICITY>.0000689</ECCENTRICITY><INCLINATION>51.9009</INCLINATION><RA_OF_ASC_NODE>199.8312</RA_OF_ASC_NODE><ARG_OF_PERICENTER>89.7895</ARG_OF_PERICENTER><MEAN_ANOMALY>270.3146</MEAN_ANOMALY></meanElements><tleParameters><EPHEMERIS_TYPE>0</EPHEMERIS_TYPE><CLASSIFICATION_TYPE>U</CLASSIFICATION_TYPE><NORAD_CAT_ID>64833</NORAD_CAT_ID><ELEMENT_SET_NO>999</ELEMENT_SET_NO><REV_AT_EPOCH>2622</REV_AT_EPOCH><BSTAR>.83503E-3</BSTAR><MEAN_MOTION_DOT>.6152E-4</MEAN_MOTION_DOT><MEAN_MOTION_DDOT>0</MEAN_MOTION_DDOT></tleParameters></data></segment></body></omm>

</ndm>
